KUIPER-00061            
1 64521U 25134X   25247.91670139 -.01195843  00000+0 -46405-1 0  9991
2 64521  51.8777 336.9021 0007115  19.5840 181.1798 15.28286443  5430
KUIPER-00062            
1 64522U 25134Y   25247.48818492  .00007015  00000+0  47404-3 0  9992
2 64522  51.8879 343.4613 0009734  27.5587 332.5902 15.07550335 12405
KUIPER-00063            
1 64523U 25134Z   25247.91670139 -.01394672  00000+0 -11902+0 0  9996
2 64523  51.8874 340.5501 0006858 330.0177 235.2259 15.00597414  5819
KUIPER-00064            
1 64524U 25134AA  25247.91670139 -.01152948  00000+0 -73040-1 0  9998
2 64524  51.8848 339.0494 0005528  85.5712 205.4941 15.11487456  5504
KUIPER-00065            
1 64525U 25134AB  25247.91670139 -.01166056  00000+0 -10729+0 0  9997
2 64525  51.8934 342.6035 0009444  21.8003 149.6303 14.97143552  5453
KUIPER-00066            
1 64526U 25134AC  25247.54722236 -.00000767  00000+0 -21819-4 0  9995
2 64526  51.8909 340.7985 0005716   9.3739 350.7346 15.17876089 12444
KUIPER-00069            
1 64816U 25151A   25247.68929482  .00045616  00000+0  12513-2 0  9992
2 64816  51.8798  44.3173 0006442 322.5828  37.4710 15.36801965  8928
KUIPER-00070            
1 64817U 25151B   25247.91670139 -.01637995  00000+0 -13657+0 0  9998
2 64817  51.8945  48.1597 0006568 353.6595 328.5472 15.01473349  5693
